[{"OBJECT_NAME":"STARLINK-5201","OBJECT_ID":"2022-136AB","EPOCH":"2026-03-09T23:20:50.883360","MEAN_MOTION":15.08822102,"ECCENTRICITY":0.0001319,"INCLINATION":53.2197,"RA_OF_ASC_NODE":343.0532,"ARG_OF_PERICENTER":93.0238,"MEAN_ANOMALY":267.0905,"EPHEMERIS_TYPE":0,"CLASSIFICATION_TYPE":"U","NORAD_CAT_ID":54076,"ELEMENT_SET_NO":999,"REV_AT_EPOCH":18688,"BSTAR":0.00023199069,"MEAN_MOTION_DOT":3.404e-5,"MEAN_MOTION_DDOT":0},{"OBJECT_NAME":"LEMUR-2-SIERRINI","OBJECT_ID":"2024-149DR","EPOCH":"2026-03-09T19:24:50.445216","MEAN_MOTION":15.08682764,"ECCENTRICITY":0.00065795,"INCLINATION":97.6873,"RA_OF_ASC_NODE":151.1225,"ARG_OF_PERICENTER":147.8458,"MEAN_ANOMALY":212.3173,"EPHEMERIS_TYPE":0,"CLASSIFICATION_TYPE":"U","NORAD_CAT_ID":60579,"ELEMENT_SET_NO":999,"REV_AT_EPOCH":8546,"BSTAR":0.00092040134,"MEAN_MOTION_DOT":0.00014386,"MEAN_MOTION_DDOT":0}]
